{"fetched_at":"2026-07-24T07:06:58.873Z","source":"https://celestrak.org/NORAD/elements/gp.php?NAME=WORLDVIEW&FORMAT=JSON","constellation":"worldview","records":[{"OBJECT_NAME":"WORLDVIEW-1 (WV-1)","OBJECT_ID":"2007-041A","EPOCH":"2026-07-23T18:53:54.002112","CLASSIFICATION_TYPE":"U","MEAN_MOTION":15.24631277,"ECCENTRICITY":0.0002355,"INCLINATION":97.3901,"RA_OF_ASC_NODE":324.0214,"ARG_OF_PERICENTER":174.6972,"MEAN_ANOMALY":185.4291,"EPHEMERIS_TYPE":0,"NORAD_CAT_ID":32060,"ELEMENT_SET_NO":999,"REV_AT_EPOCH":4845,"BSTAR":0.0002264,"MEAN_MOTION_DOT":0.00005516,"MEAN_MOTION_DDOT":0},{"OBJECT_NAME":"WORLDVIEW-2 (WV-2)","OBJECT_ID":"2009-055A","EPOCH":"2026-07-23T20:03:09.470592","CLASSIFICATION_TYPE":"U","MEAN_MOTION":14.3790876,"ECCENTRICITY":0.0005555,"INCLINATION":98.475,"RA_OF_ASC_NODE":277.786,"ARG_OF_PERICENTER":109.3414,"MEAN_ANOMALY":250.8374,"EPHEMERIS_TYPE":0,"NORAD_CAT_ID":35946,"ELEMENT_SET_NO":999,"REV_AT_EPOCH":88091,"BSTAR":0.000041758,"MEAN_MOTION_DOT":8.3e-7,"MEAN_MOTION_DDOT":0},{"OBJECT_NAME":"WORLDVIEW-3 (WV-3)","OBJECT_ID":"2014-048A","EPOCH":"2026-07-23T19:43:04.263168","CLASSIFICATION_TYPE":"U","MEAN_MOTION":14.85074303,"ECCENTRICITY":0.0001903,"INCLINATION":97.855,"RA_OF_ASC_NODE":279.1465,"ARG_OF_PERICENTER":142.2739,"MEAN_ANOMALY":217.861,"EPHEMERIS_TYPE":0,"NORAD_CAT_ID":40115,"ELEMENT_SET_NO":999,"REV_AT_EPOCH":64734,"BSTAR":0.000086724,"MEAN_MOTION_DOT":0.00000688,"MEAN_MOTION_DDOT":0}]}
